satname,norad_id,inclination_deg,eccentricity,mean_motion_rev_per_day,perigee_km,apogee_km,l1,l2
STARLINK-1184,45098,53.0539,0.0003582,15.08707375,537.6706702540823,542.6269302013652,1 45098U 20006BG  26031.78826955  .00022372  00000+0  14242-2 0  9996,2 45098  53.0539  51.8870 0003582  27.6519 332.4661 15.08707375331465
STARLINK-1193,45100,53.0548,0.0002958,15.45227174,428.69659095146926,432.72470522007643,1 45100U 20006BJ  26031.76059572  .00092532  00000+0  19025-2 0  9990,2 45100  53.0548  47.5341 0002958  65.0079 295.1234 15.45227174331520
STARLINK-1143,45179,53.0478,0.0002717,15.55443503,399.02187272334686,402.70558171851917,1 45179U 20012B   26031.91670139  .00083129  00000+0  11926-2 0  9992,2 45179  53.0478 148.6190 0002717 281.7702 264.7561 15.55443503  5852
STARLINK-1202,45183,53.1561,0.0001186,15.29357327,476.9191882268533,478.5454004234671,1 45183U 20012F   26031.78251129  .00000520  00000+0  30341-4 0  9994,2 45183  53.1561 210.6478 0001186  95.7748 264.3387 15.29357327329302
STARLINK-1216,45185,53.1592,0.0001215,15.30156413,474.5125173448332,476.17791352318454,1 45185U 20012H   26031.91670139  .00059453  00000+0  20061-2 0  9992,2 45185  53.1592 210.0356 0001215  76.7511 337.8423 15.30156413  5838
STARLINK-1225,45187,53.1579,0.0002297,15.30050141,474.0882401431836,477.23687566008357,1 45187U 20012K   26031.91670139  .00129160  00000+0  43176-2 0  9999,2 45187  53.1579 210.4749 0002297  56.6834  15.1231 15.30050141  5835
STARLINK-1230,45189,53.1552,0.0001021,15.29320816,477.14141649539397,478.54140728710263,1 45189U 20012M   26031.91670139  .00057577  00000+0  19943-2 0  9998,2 45189  53.1552 210.5289 0001021  80.7993 302.3290 15.29320816  5839
STARLINK-1234,45190,53.0467,0.0009029,15.53856648,399.3533241023533,411.60317652136746,1 45190U 20012N   26031.91670139  .00071926  00000+0  10944-2 0  9996,2 45190  53.0467 143.8886 0009029 191.3556 300.1392 15.53856648  5963
STARLINK-1269,45197,53.1552,0.0001573,15.29319649,476.7664537315313,478.9233456371712,1 45197U 20012V   26031.91670139  .00049281  00000+0  17107-2 0  9990,2 45197  53.1552 210.3899 0001573  81.9112 317.1861 15.29319649  5684
STARLINK-1154,45198,53.0497,0.0002249,15.40472911,443.1781337790444,446.2470515258192,1 45198U 20012W   26031.91670139  .00126006  00000+0  30220-2 0  9993,2 45198  53.0497 184.6511 0002249 308.8539 148.1372 15.40472911  5843
STARLINK-1199,45201,53.0538,0.0001195,15.06413235,546.3434205610647,547.9985691718393,1 45201U 20012Z   26031.84554183  .00005648  00000+0  39762-3 0  9999,2 45201  53.0538 192.0181 0001195  84.2405 275.8720 15.06413235329565
STARLINK-1209,45206,53.0486,0.0011589,15.442773,425.60840224406365,441.3964200712453,1 45206U 20012AE  26031.91670139  .00070344  00000+0  14970-2 0  9990,2 45206  53.0486 149.2720 0011589 173.1143 115.1522 15.44277300  5739
STARLINK-1210,45207,53.0126,0.0007784,15.88762568,300.54843582459125,310.9539129344639,1 45207U 20012AF  26031.91670139  .00310835  00000+0  10415-2 0  9993,2 45207  53.0126  88.9098 0007784   2.2047  26.5610 15.88762568  5933
STARLINK-1231,45212,53.0518,0.0001132,15.18074607,510.8801489021862,512.4399989597232,1 45212U 20012AL  26031.64898744  .00024457  00000+0  11970-2 0  9992,2 45212  53.0518 185.4887 0001132 176.9226 183.1775 15.18074607329598
STARLINK-1271,45217,53.0548,0.0001264,15.06380086,546.3972203800622,548.1479639249583,1 45217U 20012AR  26031.76447492 -.00001403  00000+0 -75347-4 0  9998,2 45217  53.0548 192.3830 0001264  95.0740 265.0393 15.06380086329559
STARLINK-1191,45222,53.1616,0.0001288,15.31038382,471.8305647820289,473.5953437302451,1 45222U 20012AW  26031.77986172  .00005925  00000+0  20667-3 0  9993,2 45222  53.1616 170.4096 0001288  90.7078 269.4071 15.31038382329867
STARLINK-1212,45223,53.0531,0.0001047,15.41794129,440.1002638953587,441.5281522783316,1 45223U 20012AX  26031.81627891  .00017276  00000+0  41047-3 0  9996,2 45223  53.0531 166.0279 0001047 325.9093  34.1844 15.41794129329932
STARLINK-1215,45225,53.1559,0.0001313,15.29354518,476.8405124686951,478.6408659498811,1 45225U 20012AZ  26031.68617542  .00001035  00000+0  48188-4 0  9995,2 45225  53.1559 170.1662 0001313  76.0270 284.0877 15.29354518329813
STARLINK-1221,45227,53.0665,0.0001859,15.40478417,443.4279703746615,445.9646998086482,1 45227U 20012BB  26031.62425677  .00016082  00000+0  39978-3 0  9991,2 45227  53.0665  85.0614 0001859 260.7169  99.3625 15.40478417330994
STARLINK-1222,45228,53.057,7.6e-05,15.46447915,426.60978021758456,427.64418034258597,1 45228U 20012BC  26031.75836626  .00023495  00000+0  47386-3 0  9994,2 45228  53.0570 159.5013 0000760  53.6646 306.4430 15.46447915329909
STARLINK-1226,45229,53.1589,0.0011461,15.30895409,465.2872415394113,480.99173750869886,1 45229U 20012BD  26031.66599060 -.00045832  00000+0 -15082-2 0  9991,2 45229  53.1589 170.7447 0011461 124.2447 235.9642 15.30895409329742
STARLINK-1227,45230,53.159,0.0001526,15.3101776,471.7290232459118,473.81992142726904,1 45230U 20012BE  26031.91670139  .00023748  00000+0  79115-3 0  9996,2 45230  53.1590 169.8922 0001526  85.6444  64.8760 15.31017760  5839
STARLINK-1246,45235,53.1533,0.0001066,15.29240626,477.35021185650476,478.81195755216413,1 45235U 20012BK  26031.91670139  .00115246  00000+0  39585-2 0  9992,2 45235  53.1533 210.0109 0001066  88.4723 280.8716 15.29240626  5834
STARLINK-1270,45237,53.0515,0.0001425,15.41157145,441.72102882268064,443.6649653718532,1 45237U 20012BM  26031.74746989  .00017680  00000+0  42876-3 0  9993,2 45237  53.0515 163.1878 0001425 240.4007 119.6855 15.41157145329963
STARLINK-1279,45360,53.0462,0.0008068,15.49733087,412.0235152555433,422.98896518796573,1 45360U 20019A   26031.83699303  .00081048  00000+0  14271-2 0  9990,2 45360  53.0462 276.5129 0008068  93.1477 267.0454 15.49733087324942
STARLINK-1301,45361,53.0458,0.001052,15.5547678,393.6356357238874,407.8984498298905,1 45361U 20019B   26031.00001157  .00078036  00000+0  11170-2 0  9992,2 45361  53.0458 287.7774 0010520  80.5886 290.9370 15.55476780  5914
STARLINK-1262,45366,53.0543,0.0001037,15.06399539,546.4948120452655,547.9311296292162,1 45366U 20019G   26031.53777681  .00001089  00000+0  92005-4 0  9999,2 45366  53.0543 333.3975 0001037  74.1166 285.9937 15.06399539324131
STARLINK-1273,45367,53.0541,0.0001602,15.3733143,452.9097512840726,455.0987693438783,1 45367U 20019H   26031.91670139  .01421090  00000+0  34687-1 0  9990,2 45367  53.0541 329.1547 0001602 128.4734 236.6366 15.37331430  5731
STARLINK-1276,45368,53.0566,0.0001301,15.06412529,546.272175772292,548.0741414755666,1 45368U 20019J   26030.99962125 -.00003052  00000+0 -18602-3 0  9993,2 45368  53.0566 335.8166 0001301  71.0333 289.0797 15.06412529324058
STARLINK-1277,45369,53.0551,0.0001481,15.43116077,435.9099281649351,437.9285478226293,1 45369U 20019K   26031.83840796  .00020465  00000+0  46343-3 0  9995,2 45369  53.0551 328.2833 0001481  71.8810 288.2356 15.43116077324239
STARLINK-1281,45370,53.0536,0.0001415,15.06391768,546.2568475565522,548.2167283385415,1 45370U 20019L   26031.85108360  .00003455  00000+0  25076-3 0  9993,2 45370  53.0536 331.9925 0001415  90.7501 269.3650 15.06391768324183
STARLINK-1300,45374,53.0557,0.000152,15.0639968,546.1598855624807,548.2651918222437,1 45374U 20019Q   26031.54147272  .00004164  00000+0  29826-3 0  9993,2 45374  53.0557 333.3814 0001520  85.5297 274.5865 15.06399680324136
STARLINK-1302,45375,53.0558,8.54e-05,15.43272081,435.87799014181655,437.04192330202477,1 45375U 20019R   26031.91670139  .00040471  00000+0  90035-3 0  9999,2 45375  53.0558 327.3946 0000854  84.0519 119.7297 15.43272081  5846
STARLINK-1304,45376,53.055,0.0005163,15.42280756,435.85988569916935,442.8996535154656,1 45376U 20019S   26031.83888681  .00063226  00000+0  14439-2 0  9990,2 45376  53.0550 325.0010 0005163  94.9980 265.1614 15.42280756324273
STARLINK-1305,45377,53.0506,0.0006043,15.45829403,424.8286073760364,433.05564320686335,1 45377U 20019T   26031.74744345  .00074162  00000+0  14983-2 0  9994,2 45377  53.0506 309.3591 0006043  53.6000 306.5562 15.45829403324494
STARLINK-1319,45379,53.052,0.0006948,15.51286816,408.2494616733029,417.6863810720415,1 45379U 20019V   26031.17217638  .00086030  00000+0  14327-2 0  9992,2 45379  53.0520 311.5115 0006948  67.7069 292.4675 15.51286816324416
STARLINK-1266,45383,53.0534,0.0001692,15.41155775,441.54295419767004,443.85112443657454,1 45383U 20019Z   26031.73687173  .00064066  00000+0  15192-2 0  9990,2 45383  53.0534 308.3908 0001692 111.3751 248.7434 15.41155775324498
STARLINK-1267,45384,53.0547,0.0008131,15.43207291,431.10958749732526,442.19179524102947,1 45384U 20019AA  26031.91670139  .00070401  00000+0  15552-2 0  9995,2 45384  53.0547 302.5066 0008131 105.4361 283.5564 15.43207291  5827
STARLINK-1272,45386,53.048,0.0007367,15.48714927,415.4757753767335,425.4928640291837,1 45386U 20019AC  26031.84668357  .00077980  00000+0  14242-2 0  9992,2 45386  53.0480 287.2664 0007367  73.2687 286.9129 15.48714927324801
STARLINK-1274,45387,53.0306,0.0010392,15.41860999,433.5310003523109,447.7030987689177,1 45387U 20019AD  26031.83873720  .00064815  00000+0  14985-2 0  9991,2 45387  53.0306 278.3926 0010392 107.4596 252.7545 15.41860999324922
STARLINK-1280,45388,53.0484,0.0007405,15.5737476,390.2425692864208,400.2739676790434,1 45388U 20019AE  26031.91670139  .00074173  00000+0  99153-3 0  9999,2 45388  53.0484 302.0798 0007405  74.2845 284.4739 15.57374760  5860
STARLINK-1283,45389,53.0497,0.0012672,15.48390588,412.8172684388219,430.0501003813906,1 45389U 20019AF  26031.44220260  .00076550  00000+0  14116-2 0  9990,2 45389  53.0497 289.3559 0012672 103.5541 256.6878 15.48390588324740
STARLINK-1284,45390,53.0542,0.0002487,15.45098038,429.39656735464996,432.7834768754492,1 45390U 20019AG  26031.49966506  .00069630  00000+0  14444-2 0  9992,2 45390  53.0542 309.0088 0002487 100.8244 259.3042 15.45098038324467
